[{"OBJECT_NAME":"STARLINK-34798","OBJECT_ID":"2025-165H","EPOCH":"2026-03-09T18:05:23.973216","MEAN_MOTION":15.05644548,"ECCENTRICITY":0.00011549,"INCLINATION":97.6023,"RA_OF_ASC_NODE":147.3485,"ARG_OF_PERICENTER":92.2896,"MEAN_ANOMALY":267.8463,"EPHEMERIS_TYPE":0,"CLASSIFICATION_TYPE":"U","NORAD_CAT_ID":65063,"ELEMENT_SET_NO":999,"REV_AT_EPOCH":3480,"BSTAR":0.00048937741,"MEAN_MOTION_DOT":7.006e-5,"MEAN_MOTION_DDOT":0},{"OBJECT_NAME":"OBJECT Z","OBJECT_ID":"2017-042Z","EPOCH":"2026-03-09T21:17:53.130336","MEAN_MOTION":15.06776019,"ECCENTRICITY":0.00062541,"INCLINATION":97.3821,"RA_OF_ASC_NODE":235.9429,"ARG_OF_PERICENTER":50.1524,"MEAN_ANOMALY":310.0253,"EPHEMERIS_TYPE":0,"CLASSIFICATION_TYPE":"U","NORAD_CAT_ID":42848,"ELEMENT_SET_NO":999,"REV_AT_EPOCH":47228,"BSTAR":0.00039314781,"MEAN_MOTION_DOT":5.795e-5,"MEAN_MOTION_DDOT":0}]
